[{"OBJECT_NAME":"STARLINK-4757","OBJECT_ID":"2022-114G","EPOCH":"2026-03-09T21:54:32.806944","MEAN_MOTION":15.08848756,"ECCENTRICITY":0.00012809,"INCLINATION":53.2175,"RA_OF_ASC_NODE":302.5297,"ARG_OF_PERICENTER":91.617,"MEAN_ANOMALY":268.4969,"EPHEMERIS_TYPE":0,"CLASSIFICATION_TYPE":"U","NORAD_CAT_ID":53824,"ELEMENT_SET_NO":999,"REV_AT_EPOCH":19278,"BSTAR":0.00015977517,"MEAN_MOTION_DOT":2.256e-5,"MEAN_MOTION_DDOT":0},{"OBJECT_NAME":"OBJECT J","OBJECT_ID":"2017-042J","EPOCH":"2026-03-09T23:17:19.167936","MEAN_MOTION":15.08203331,"ECCENTRICITY":0.00078186,"INCLINATION":97.4246,"RA_OF_ASC_NODE":235.0467,"ARG_OF_PERICENTER":81.5059,"MEAN_ANOMALY":278.7055,"EPHEMERIS_TYPE":0,"CLASSIFICATION_TYPE":"U","NORAD_CAT_ID":42833,"ELEMENT_SET_NO":999,"REV_AT_EPOCH":47205,"BSTAR":0.00039182004,"MEAN_MOTION_DOT":6.006e-5,"MEAN_MOTION_DDOT":0}]
